start=new Date('2022-01-08T00:00:00.000Z').valueOf();
sats=[{"APOAPSIS":"306.183","CLASSIFICATION_TYPE":"U","EPOCH":"2022-01-07T22:00:00.999936","LAUNCH_DATE":"2021-01-24","PERIOD":"90.585","CENTER_NAME":"EARTH","COUNTRY_CODE":"US","ECCENTRICITY":"0.00044720","REF_FRAME":"TEME","OBJECT_NAME":"STARLINK-2201","RCS_SIZE":"LARGE","MEAN_ANOMALY":"311.9633","RA_OF_ASC_NODE":"73.3048","REV_AT_EPOCH":"372","ELEMENT_SET_NO":"999","NORAD_CAT_ID":"47415","SEMIMAJOR_AXIS":"6681.330","BSTAR":"0.00003219500000","TIME_SYSTEM":"UTC","MEAN_MOTION_DDOT":"0.0000023487000","INCLINATION":"97.4930","TLE_LINE1":"1 47415U 21006C   22007.91667824  .00008697  23487-5  32195-4 0  9997","GP_ID":"193424982","FILE":"3266804","MEAN_ELEMENT_THEORY":"SGP4","MEAN_MOTION":"15.89675077","EPHEMERIS_TYPE":"0","OBJECT_ID":"2021-006C","SITE":"AFETR","ARG_OF_PERICENTER":"206.4039","DECAY_DATE":null,"OBJECT_TYPE":"PAYLOAD","PERIAPSIS":"300.207","TLE_LINE2":"2 47415  97.4930  73.3048 0004472 206.4039 311.9633 15.89675077  3724","MEAN_MOTION_DOT":"0.00008697"},{"DECAY_DATE":null,"OBJECT_TYPE":"PAYLOAD","ARG_OF_PERICENTER":"208.5271","PERIAPSIS":"301.563","TLE_LINE2":"2 47416  97.4937  75.3905 0002290 208.5271  22.3538 15.89711418 53275","MEAN_MOTION_DOT":"0.00001260","GP_ID":"193397113","FILE":"3266523","TLE_LINE1":"1 47416U 21006D   22007.91667824  .00001260  23196-5  67965-5 0  9998","INCLINATION":"97.4937","OBJECT_ID":"2021-006D","SITE":"AFETR","EPHEMERIS_TYPE":"0","MEAN_MOTION":"15.89711418","MEAN_ELEMENT_THEORY":"SGP4","ELEMENT_SET_NO":"999","MEAN_ANOMALY":"22.3538","RA_OF_ASC_NODE":"75.3905","REV_AT_EPOCH":"5327","RCS_SIZE":"LARGE","TIME_SYSTEM":"UTC","MEAN_MOTION_DDOT":"0.0000023196000","NORAD_CAT_ID":"47416","BSTAR":"0.00000679650000","SEMIMAJOR_AXIS":"6681.228","CENTER_NAME":"EARTH","PERIOD":"90.582","LAUNCH_DATE":"2021-01-24","EPOCH":"2022-01-07T22:00:00.999936","APOAPSIS":"304.623","CLASSIFICATION_TYPE":"U","OBJECT_NAME":"STARLINK-2202","ECCENTRICITY":"0.00022900","COUNTRY_CODE":"US","REF_FRAME":"TEME"},{"TLE_LINE2":"2 47422  97.4952  75.4265 0002401 217.9100  27.1655 15.89657662 53271","PERIAPSIS":"301.640","MEAN_MOTION_DOT":"0.00021357","ARG_OF_PERICENTER":"217.9100","DECAY_DATE":null,"OBJECT_TYPE":"PAYLOAD","MEAN_MOTION":"15.89657662","MEAN_ELEMENT_THEORY":"SGP4","OBJECT_ID":"2021-006K","SITE":"AFETR","EPHEMERIS_TYPE":"0","INCLINATION":"97.4952","GP_ID":"193397282","FILE":"3266528","TLE_LINE1":"1 47422U 21006K   22007.91667824  .00021357  24863-5  75533-4 0  9995","MEAN_MOTION_DDOT":"0.0000024863000","TIME_SYSTEM":"UTC","NORAD_CAT_ID":"47422","SEMIMAJOR_AXIS":"6681.379","BSTAR":"0.00007553300000","RA_OF_ASC_NODE":"75.4265","MEAN_ANOMALY":"27.1655","REV_AT_EPOCH":"5327","RCS_SIZE":"LARGE","ELEMENT_SET_NO":"999","COUNTRY_CODE":"US","ECCENTRICITY":"0.00024010","REF_FRAME":"TEME","OBJECT_NAME":"STARLINK-2208","EPOCH":"2022-01-07T22:00:00.999936","APOAPSIS":"304.848","CLASSIFICATION_TYPE":"U","CENTER_NAME":"EARTH","PERIOD":"90.586","LAUNCH_DATE":"2021-01-24"},{"INCLINATION":"53.0553","TLE_LINE1":"1 47548U 21009A   22007.68432163 -.00000010  00000-0  18258-4 0  9994","FILE":"3266804","GP_ID":"193425736","MEAN_ELEMENT_THEORY":"SGP4","MEAN_MOTION":"15.06398923","EPHEMERIS_TYPE":"0","SITE":"AFETR","OBJECT_ID":"2021-009A","ARG_OF_PERICENTER":"70.4214","OBJECT_TYPE":"PAYLOAD","DECAY_DATE":null,"MEAN_MOTION_DOT":"-0.00000010","TLE_LINE2":"2 47548  53.0553   4.1779 0001476  70.4214 289.6935 15.06398923 51537","PERIAPSIS":"546.195","CLASSIFICATION_TYPE":"U","APOAPSIS":"548.239","EPOCH":"2022-01-07T16:25:25.388832","LAUNCH_DATE":"2021-02-04","PERIOD":"95.592","CENTER_NAME":"EARTH","ECCENTRICITY":"0.00014760","COUNTRY_CODE":"US","REF_FRAME":"TEME","OBJECT_NAME":"STARLINK-1782","RCS_SIZE":"LARGE","REV_AT_EPOCH":"5153","MEAN_ANOMALY":"289.6935","RA_OF_ASC_NODE":"4.1779","ELEMENT_SET_NO":"999","SEMIMAJOR_AXIS":"6925.352","BSTAR":"0.00001825800000","NORAD_CAT_ID":"47548","MEAN_MOTION_DDOT":"0.0000000000000","TIME_SYSTEM":"UTC"},{"ARG_OF_PERICENTER":"70.3336","OBJECT_TYPE":"PAYLOAD","DECAY_DATE":null,"MEAN_MOTION_DOT":"-0.00000052","TLE_LINE2":"2 47549  53.0568   4.1849 0001716  70.3336 289.7838 15.06389010 51533","PERIAPSIS":"546.059","INCLINATION":"53.0568","FILE":"3266804","GP_ID":"193424998","TLE_LINE1":"1 47549U 21009B   22007.68064101 -.00000052  00000-0  15439-4 0  9992","MEAN_MOTION":"15.06389010","MEAN_ELEMENT_THEORY":"SGP4","SITE":"AFETR","OBJECT_ID":"2021-009B","EPHEMERIS_TYPE":"0","REV_AT_EPOCH":"5153","RA_OF_ASC_NODE":"4.1849","MEAN_ANOMALY":"289.7838","RCS_SIZE":"LARGE","ELEMENT_SET_NO":"999","MEAN_MOTION_DDOT":"0.0000000000000","TIME_SYSTEM":"UTC","SEMIMAJOR_AXIS":"6925.382","BSTAR":"0.00001543900000","NORAD_CAT_ID":"47549","EPOCH":"2022-01-07T16:20:07.383264","CLASSIFICATION_TYPE":"U","APOAPSIS":"548.436","CENTER_NAME":"EARTH","PERIOD":"95.593","LAUNCH_DATE":"2021-02-04","COUNTRY_CODE":"US","ECCENTRICITY":"0.00017160","REF_FRAME":"TEME","OBJECT_NAME":"STARLINK-1806"},{"EPHEMERIS_TYPE":"0","OBJECT_ID":"2021-009C","SITE":"AFETR","MEAN_ELEMENT_THEORY":"SGP4","MEAN_MOTION":"15.06387908","TLE_LINE1":"1 47550U 21009C   22007.69262114 -.00001013  00000-0 -49156-4 0  9991","GP_ID":"193425248","FILE":"3266804","INCLINATION":"53.0574","TLE_LINE2":"2 47550  53.0574 354.1386 0001712  69.5962 290.5211 15.06387908 51671","PERIAPSIS":"546.065","MEAN_MOTION_DOT":"-0.00001013","DECAY_DATE":null,"OBJECT_TYPE":"PAYLOAD","ARG_OF_PERICENTER":"69.5962","OBJECT_NAME":"STARLINK-1909","COUNTRY_CODE":"US","REF_FRAME":"TEME","ECCENTRICITY":"0.00017120","PERIOD":"95.593","LAUNCH_DATE":"2021-02-04","CENTER_NAME":"EARTH","APOAPSIS":"548.436","CLASSIFICATION_TYPE":"U","EPOCH":"2022-01-07T16:37:22.466496","NORAD_CAT_ID":"47550","SEMIMAJOR_AXIS":"6925.386","BSTAR":"-0.00004915600000","TIME_SYSTEM":"UTC","MEAN_MOTION_DDOT":"0.0000000000000","ELEMENT_SET_NO":"999","RCS_SIZE":"LARGE","MEAN_ANOMALY":"290.5211","RA_OF_ASC_NODE":"354.1386","REV_AT_EPOCH":"5167"},{"APOAPSIS":"548.359","CLASSIFICATION_TYPE":"U","EPOCH":"2022-01-07T11:42:47.459520","LAUNCH_DATE":"2021-02-04","PERIOD":"95.593","CENTER_NAME":"EARTH","ECCENTRICITY":"0.00016150","COUNTRY_CODE":"US","REF_FRAME":"TEME","OBJECT_NAME":"STARLINK-1938","RCS_SIZE":"LARGE","RA_OF_ASC_NODE":"15.0442","MEAN_ANOMALY":"288.8149","REV_AT_EPOCH":"5136","ELEMENT_SET_NO":"999","NORAD_CAT_ID":"47551","SEMIMAJOR_AXIS":"6925.376","BSTAR":"-0.00001304200000","MEAN_MOTION_DDOT":"0.0000000000000","TIME_SYSTEM":"UTC","INCLINATION":"53.0566","TLE_LINE1":"1 47551U 21009D   22007.48804930 -.00000476  00000-0 -13042-4 0  9994","GP_ID":"193394254","FILE":"3266507","MEAN_ELEMENT_THEORY":"SGP4","MEAN_MOTION":"15.06391120","EPHEMERIS_TYPE":"0","OBJECT_ID":"2021-009D","SITE":"AFETR","ARG_OF_PERICENTER":"71.3015","DECAY_DATE":null,"OBJECT_TYPE":"PAYLOAD","TLE_LINE2":"2 47551  53.0566  15.0442 0001615  71.3015 288.8149 15.06391120 51368","PERIAPSIS":"546.122","MEAN_MOTION_DOT":"-0.00000476"},{"OBJECT_ID":"2021-009E","SITE":"AFETR","EPHEMERIS_TYPE":"0","MEAN_MOTION":"15.06386911","MEAN_ELEMENT_THEORY":"SGP4","GP_ID":"193426236","FILE":"3266804","TLE_LINE1":"1 47552U 21009E   22007.82439402 -.00000894  00000-0 -41150-4 0  9996","INCLINATION":"53.0556","TLE_LINE2":"2 47552  53.0556   3.5420 0001572  72.0980 288.0180 15.06386911 51557","PERIAPSIS":"546.165","MEAN_MOTION_DOT":"-0.00000894","DECAY_DATE":null,"OBJECT_TYPE":"PAYLOAD","ARG_OF_PERICENTER":"72.0980","OBJECT_NAME":"STARLINK-1940","ECCENTRICITY":"0.00015720","COUNTRY_CODE":"US","REF_FRAME":"TEME","CENTER_NAME":"EARTH","LAUNCH_DATE":"2021-02-04","PERIOD":"95.593","EPOCH":"2022-01-07T19:47:07.643328","APOAPSIS":"548.342","CLASSIFICATION_TYPE":"U","MEAN_MOTION_DDOT":"0.0000000000000","TIME_SYSTEM":"UTC","NORAD_CAT_ID":"47552","SEMIMAJOR_AXIS":"6925.389","BSTAR":"-0.00004115000000","ELEMENT_SET_NO":"999","RA_OF_ASC_NODE":"3.5420","MEAN_ANOMALY":"288.0180","REV_AT_EPOCH":"5155","RCS_SIZE":"LARGE"},{"EPHEMERIS_TYPE":"0","OBJECT_ID":"2021-009F","SITE":"AFETR","MEAN_ELEMENT_THEORY":"SGP4","MEAN_MOTION":"15.39765978","TLE_LINE1":"1 47553U 21009F   22007.67802326  .00486722  00000-0  11363-1 0  9995","GP_ID":"193424499","FILE":"3266804","INCLINATION":"53.0617","TLE_LINE2":"2 47553  53.0617 357.8978 0001608  28.3547 331.7544 15.39765978 51620","PERIAPSIS":"445.705","MEAN_MOTION_DOT":"0.00486722","DECAY_DATE":null,"OBJECT_TYPE":"PAYLOAD","ARG_OF_PERICENTER":"28.3547","OBJECT_NAME":"STARLINK-1951","ECCENTRICITY":"0.00016080","COUNTRY_CODE":"US","REF_FRAME":"TEME","PERIOD":"93.521","LAUNCH_DATE":"2021-02-04","CENTER_NAME":"EARTH","CLASSIFICATION_TYPE":"U","APOAPSIS":"447.900","EPOCH":"2022-01-07T16:16:21.209664","NORAD_CAT_ID":"47553","SEMIMAJOR_AXIS":"6824.938","BSTAR":"0.01136300000000","MEAN_MOTION_DDOT":"0.0000000000000","TIME_SYSTEM":"UTC","ELEMENT_SET_NO":"999","RCS_SIZE":"LARGE","RA_OF_ASC_NODE":"357.8978","MEAN_ANOMALY":"331.7544","REV_AT_EPOCH":"5162"},{"SITE":"AFETR","OBJECT_ID":"2021-009G","EPHEMERIS_TYPE":"0","MEAN_MOTION":"15.06391452","MEAN_ELEMENT_THEORY":"SGP4","FILE":"3266804","GP_ID":"193424749","TLE_LINE1":"1 47554U 21009G   22007.76357221 -.00000388  00000-0 -71768-5 0  9996","INCLINATION":"53.0571","MEAN_MOTION_DOT":"-0.00000388","TLE_LINE2":"2 47554  53.0571  23.8115 0001755 197.8484 162.2443 15.06391452 51269","PERIAPSIS":"546.024","OBJECT_TYPE":"PAYLOAD","DECAY_DATE":null,"ARG_OF_PERICENTER":"197.8484","OBJECT_NAME":"STARLINK-1953","COUNTRY_CODE":"US","ECCENTRICITY":"0.00017550","REF_FRAME":"TEME","CENTER_NAME":"EARTH","LAUNCH_DATE":"2021-02-04","PERIOD":"95.593","EPOCH":"2022-01-07T18:19:32.638944","CLASSIFICATION_TYPE":"U","APOAPSIS":"548.455","TIME_SYSTEM":"UTC","MEAN_MOTION_DDOT":"0.0000000000000","SEMIMAJOR_AXIS":"6925.375","BSTAR":"-0.00000717680000","NORAD_CAT_ID":"47554","ELEMENT_SET_NO":"999","REV_AT_EPOCH":"5126","RA_OF_ASC_NODE":"23.8115","MEAN_ANOMALY":"162.2443","RCS_SIZE":"LARGE"}];
